[{"OBJECT_NAME":"STARLINK-4013","OBJECT_ID":"2022-052G","EPOCH":"2026-03-09T20:30:30.121056","MEAN_MOTION":15.08847109,"ECCENTRICITY":0.00011922,"INCLINATION":53.2159,"RA_OF_ASC_NODE":278.3851,"ARG_OF_PERICENTER":87.7499,"MEAN_ANOMALY":272.3629,"EPHEMERIS_TYPE":0,"CLASSIFICATION_TYPE":"U","NORAD_CAT_ID":52604,"ELEMENT_SET_NO":999,"REV_AT_EPOCH":21088,"BSTAR":8.4037137e-5,"MEAN_MOTION_DOT":1.05e-5,"MEAN_MOTION_DDOT":0},{"OBJECT_NAME":"CZ-6A DEB","OBJECT_ID":"2022-151KK","EPOCH":"2026-03-09T15:42:53.993376","MEAN_MOTION":15.13886585,"ECCENTRICITY":0.0019766,"INCLINATION":98.5478,"RA_OF_ASC_NODE":140.8365,"ARG_OF_PERICENTER":144.334,"MEAN_ANOMALY":215.9214,"EPHEMERIS_TYPE":0,"CLASSIFICATION_TYPE":"U","NORAD_CAT_ID":54531,"ELEMENT_SET_NO":999,"REV_AT_EPOCH":8393,"BSTAR":0.0066445138,"MEAN_MOTION_DOT":0.00122683,"MEAN_MOTION_DDOT":0}]
